[{"OBJECT_NAME":"VSP RF C1","OBJECT_ID":"2024-043AQ","EPOCH":"2026-03-09T21:56:05.358624","MEAN_MOTION":15.29409663,"ECCENTRICITY":0.00093965,"INCLINATION":97.5441,"RA_OF_ASC_NODE":205.1792,"ARG_OF_PERICENTER":219.6172,"MEAN_ANOMALY":140.4382,"EPHEMERIS_TYPE":0,"CLASSIFICATION_TYPE":"U","NORAD_CAT_ID":59136,"ELEMENT_SET_NO":999,"REV_AT_EPOCH":11190,"BSTAR":0.00026222052,"MEAN_MOTION_DOT":7.409e-5,"MEAN_MOTION_DDOT":0},{"OBJECT_NAME":"STARLINK-35199","OBJECT_ID":"2025-223E","EPOCH":"2026-03-09T22:14:34.310400","MEAN_MOTION":15.30207487,"ECCENTRICITY":0.00011677,"INCLINATION":53.1587,"RA_OF_ASC_NODE":292.9545,"ARG_OF_PERICENTER":90.2923,"MEAN_ANOMALY":269.8212,"EPHEMERIS_TYPE":0,"CLASSIFICATION_TYPE":"U","NORAD_CAT_ID":65858,"ELEMENT_SET_NO":999,"REV_AT_EPOCH":2424,"BSTAR":0.00056693785,"MEAN_MOTION_DOT":0.00016473,"MEAN_MOTION_DDOT":0}]
